NORAD_CAT_ID,OBJECT_NAME,OBJECT_TYPE,EPOCH,MEAN_MOTION,ECCENTRICITY,INCLINATION,RA_OF_ASC_NODE,ARG_OF_PERICENTER,MEAN_ANOMALY,BSTAR,MEAN_MOTION_DOT,MEAN_MOTION_DDOT,TLE_LINE0,TLE_LINE1,TLE_LINE2,SEMIMAJOR_AXIS,PERIOD,APOGEE,PERIGEE,DECAYED
49413.0,STARLINK-3157,PAYLOAD,2024-07-21 11:35:52,15.08840206,0.0001063,53.2153,15.6114,75.7319,284.3791,8.0437e-05,9.93e-06,0.0,0 STARLINK-3157,1 49413U 21104F   24203.48324300  .00000993  00000-0  80437-4 0  9991,2 49413  53.2153  15.6114 0001063  75.7319 284.3791 15.08840206149857,6917.88,95.438,540.48,539.009,0.0
49413.0,STARLINK-3157,PAYLOAD,2024-07-21 14:46:38,15.08840124,0.0001107,53.2157,15.0164,77.2681,282.8435,7.6289e-05,9.27e-06,0.0,0 STARLINK-3157,1 49413U 21104F   24203.61572354  .00000927  00000-0  76289-4 0  9997,2 49413  53.2157  15.0164 0001107  77.2681 282.8435 15.08840124148786,6917.88,95.438,540.511,538.979,0.0
49413.0,STARLINK-3157,PAYLOAD,2024-07-21 17:57:24,15.08847773,0.000108,53.2162,14.4199,83.5526,276.5589,0.00011189,1.494e-05,0.0,0 STARLINK-3157,1 49413U 21104F   24203.74819933  .00001494  00000-0  11189-3 0  9995,2 49413  53.2162  14.4199 0001080  83.5526 276.5589 15.08847773148801,6917.857,95.437,540.469,538.975,0.0
49413.0,STARLINK-3157,PAYLOAD,2024-07-22 20:58:57,15.08844129,0.0001325,53.2178,9.3664,88.6036,271.5108,0.00016962,2.413e-05,0.0,0 STARLINK-3157,1 49413U 21104F   24204.87428129  .00002413  00000-0  16962-3 0  9999,2 49413  53.2178   9.3664 0001325  88.6036 271.5108 15.08844129148974,6917.868,95.437,540.649,538.816,0.0
49413.0,STARLINK-3157,PAYLOAD,2024-07-23 11:17:26,15.08837631,0.0001265,53.2171,6.688,81.6685,278.4451,6.4601e-07,-2.78e-06,0.0,0 STARLINK-3157,1 49413U 21104F   24205.47044557 -.00000278  00000-0  64601-6 0  9999,2 49413  53.2171   6.6880 0001265  81.6685 278.4451 15.08837631150153,6917.888,95.438,540.628,538.878,0.0
49413.0,STARLINK-3157,PAYLOAD,2024-07-24 11:08:13,15.088361,0.0001172,53.217,2.229,76.4152,283.697,3.4078e-06,-2.34e-06,0.0,0 STARLINK-3157,1 49413U 21104F   24206.46404948 -.00000234  00000-0  34078-5 0  9999,2 49413  53.2170   2.2290 0001172  76.4152 283.6970 15.08836100149216,6917.892,95.438,540.568,538.947,0.0
49413.0,STARLINK-3157,PAYLOAD,2024-07-25 18:55:56,15.08844368,0.0001297,53.2174,356.2811,82.5905,277.5235,8.1596e-05,1.011e-05,0.0,0 STARLINK-3157,1 49413U 21104F   24207.78884421  .00001011  00000-0  81596-4 0  9992,2 49413  53.2174 356.2811 0001297  82.5905 277.5235 15.08844368150508,6917.867,95.437,540.629,538.835,0.0
49413.0,STARLINK-3157,PAYLOAD,2024-07-26 09:14:24,15.08838751,0.0001253,53.217,353.6045,89.0107,271.1029,0.00010326,1.356e-05,0.0,0 STARLINK-3157,1 49413U 21104F   24208.38500786  .00001356  00000-0  10326-3 0  9992,2 49413  53.2170 353.6045 0001253  89.0107 271.1029 15.08838751150591,6917.884,95.438,540.616,538.882,0.0
49413.0,STARLINK-3157,PAYLOAD,2024-07-26 14:00:33,15.08844029,0.000137,53.218,352.7145,93.225,266.8898,0.00014168,1.968e-05,0.0,0 STARLINK-3157,1 49413U 21104F   24208.58372341  .00001968  00000-0  14168-3 0  9995,2 49413  53.2180 352.7145 0001370  93.2250 266.8898 15.08844029149531,6917.868,95.437,540.681,538.785,0.0
49413.0,STARLINK-3157,PAYLOAD,2024-07-26 18:46:42,15.08857824,9.04e-05,53.2172,351.8189,100.7876,259.3218,0.00017377,2.48e-05,0.0,0 STARLINK-3157,1 49413U 21104F   24208.78243060  .00002480  00000-0  17377-3 0  9997,2 49413  53.2172 351.8189 0000904 100.7876 259.3218 15.08857824150655,6917.826,95.436,540.316,539.066,0.0
49413.0,STARLINK-3157,PAYLOAD,2024-07-27 02:43:37,15.0885215,0.0001415,53.2189,350.3336,84.2577,275.8576,0.00014376,2.001e-05,0.0,0 STARLINK-3157,1 49413U 21104F   24209.11363397  .00002001  00000-0  14376-3 0  9996,2 49413  53.2189 350.3336 0001415  84.2577 275.8576 15.08852150150706,6917.843,95.437,540.687,538.729,0.0
49413.0,STARLINK-3157,PAYLOAD,2024-07-27 18:37:30,15.0883456,9.96e-05,53.2179,347.3614,88.376,271.7346,-1.1108e-05,-4.64e-06,0.0,0 STARLINK-3157,1 49413U 21104F   24209.77604707 -.00000464  00000-0 -11108-4 0  9995,2 49413  53.2179 347.3614 0000996  88.3760 271.7346 15.08834560149716,6917.897,95.438,540.451,539.073,0.0
49413.0,STARLINK-3157,PAYLOAD,2024-07-28 02:34:26,15.08830113,0.0001122,53.218,345.8728,85.5686,274.5434,-7.0759e-05,-1.413e-05,0.0,0 STARLINK-3157,1 49413U 21104F   24210.10725312 -.00001413  00000-0 -70759-4 0  9992,2 49413  53.2180 345.8728 0001122  85.5686 274.5434 15.08830113150851,6917.911,95.438,540.552,538.999,0.0
49413.0,STARLINK-3157,PAYLOAD,2024-07-28 20:03:40,15.08842037,0.0001348,53.2182,342.6023,79.5387,280.5758,0.00015476,2.176e-05,0.0,0 STARLINK-3157,1 49413U 21104F   24210.83588135  .00002176  00000-0  15476-3 0  9991,2 49413  53.2182 342.6023 0001348  79.5387 280.5758 15.08842037150963,6917.874,95.437,540.672,538.807,0.0
49413.0,STARLINK-3157,PAYLOAD,2024-07-29 02:25:13,15.08837916,0.0001579,53.2164,341.414,82.3038,277.8134,-9.1834e-05,-1.749e-05,0.0,0 STARLINK-3157,1 49413U 21104F   24211.10085032 -.00001749  00000-0 -91834-4 0  9990,2 49413  53.2164 341.4140 0001579  82.3038 277.8134 15.08837916151004,6917.887,95.438,540.844,538.659,0.0
49413.0,STARLINK-3157,PAYLOAD,2024-07-29 16:43:41,15.08829429,0.0001324,53.2167,338.7371,83.1918,276.9224,6.0323e-05,6.72e-06,0.0,0 STARLINK-3157,1 49413U 21104F   24211.69701226  .00000672  00000-0  60323-4 0  9995,2 49413  53.2167 338.7371 0001324  83.1918 276.9224 15.08829429150005,6917.913,95.438,540.694,538.862,0.0
49413.0,STARLINK-3157,PAYLOAD,2024-07-30 14:59:05,15.08841883,0.0001337,53.2169,334.5737,87.1302,272.9843,0.0001232,1.673e-05,0.0,0 STARLINK-3157,1 49413U 21104F   24212.62436567  .00001673  00000-0  12320-3 0  9997,2 49413  53.2169 334.5737 0001337  87.1302 272.9843 15.08841883150148,6917.875,95.437,540.665,538.815,0.0
49413.0,STARLINK-3157,PAYLOAD,2024-07-31 13:14:31,15.08792598,0.0001173,53.2182,330.4125,90.7054,269.4073,0.00045713,6.985e-05,0.0,0 STARLINK-3157,1 49413U 21104F   24213.55175398  .00006985  00000-0  45713-3 0  9995,2 49413  53.2182 330.4125 0001173  90.7054 269.4073 15.08792598151371,6918.025,95.441,540.702,539.079,0.0
49413.0,STARLINK-3157,PAYLOAD,2024-07-31 14:49:53,15.08832755,0.0001299,53.2173,330.1142,97.1052,263.0088,5.2293e-05,5.44e-06,0.0,0 STARLINK-3157,1 49413U 21104F   24213.61797898  .00000544  00000-0  52293-4 0  9994,2 49413  53.2173 330.1142 0001299  97.1052 263.0088 15.08832755150291,6917.903,95.438,540.666,538.869,0.0
49413.0,STARLINK-3157,PAYLOAD,2024-07-31 18:00:39,15.08838269,0.0001236,53.2166,329.5181,96.4138,263.6995,1.8444e-05,6e-08,0.0,0 STARLINK-3157,1 49413U 21104F   24213.75045702  .00000006  00000-0  18444-4 0  9992,2 49413  53.2166 329.5181 0001236  96.4138 263.6995 15.08838269151409,6917.886,95.438,540.606,538.896,0.0
49413.0,STARLINK-3157,PAYLOAD,2024-08-01 11:29:52,15.08931135,8.09e-05,53.2169,326.2472,120.8167,239.2905,-0.00097059,-0.0001574,0.0,0 STARLINK-3157,1 49413U 21104F   24214.47908492 -.00015740  00000-0 -97059-3 0  9997,2 49413  53.2169 326.2472 0000809 120.8167 239.2905 15.08931135151516,6917.602,95.432,540.026,538.907,0.0
49413.0,STARLINK-3157,PAYLOAD,2024-08-02 00:12:58,15.0882766,0.0001,53.2172,323.8684,82.485,277.6256,0.00036369,5.503e-05,0.0,0 STARLINK-3157,1 49413U 21104F   24215.00901185  .00005503  00000-0  36369-3 0  9990,2 49413  53.2172 323.8684 0001000  82.4850 277.6256 15.08827660151594,6917.918,95.438,540.475,539.091,0.0
49413.0,STARLINK-3157,PAYLOAD,2024-08-02 12:56:04,15.08830761,0.0001747,53.2186,321.4946,116.4097,243.7074,4.0316e-06,-2.24e-06,0.0,0 STARLINK-3157,1 49413U 21104F   24215.53894523 -.00000224  00000-0  40316-5 0  9990,2 49413  53.2186 321.4946 0001747 116.4097 243.7074 15.08830761151670,6917.909,95.438,540.982,538.565,0.0
49413.0,STARLINK-3157,PAYLOAD,2024-08-02 14:31:27,15.08838172,0.0001269,53.2173,321.1923,96.1586,263.9551,3.4257e-05,2.57e-06,0.0,0 STARLINK-3157,1 49413U 21104F   24215.60517948  .00000257  00000-0  34257-4 0  9992,2 49413  53.2173 321.1923 0001269  96.1586 263.9551 15.08838172150592,6917.886,95.438,540.629,538.873,0.0
49413.0,STARLINK-3157,PAYLOAD,2024-08-02 16:06:50,15.08840166,0.0001374,53.2177,320.8953,103.6679,256.4466,4.8086e-05,4.77e-06,0.0,0 STARLINK-3157,1 49413U 21104F   24215.67141780  .00000477  00000-0  48086-4 0  9995,2 49413  53.2177 320.8953 0001374 103.6679 256.4466 15.08840166151699,6917.88,95.438,540.695,538.794,0.0
49413.0,STARLINK-3157,PAYLOAD,2024-08-03 14:22:13,15.08855469,0.0001303,53.2174,316.7298,92.995,267.1191,0.00010622,1.404e-05,0.0,0 STARLINK-3157,1 49413U 21104F   24216.59876539  .00001404  00000-0  10622-3 0  9999,2 49413  53.2174 316.7298 0001303  92.9950 267.1191 15.08855469150747,6917.833,95.437,540.6,538.797,0.0
49413.0,STARLINK-3157,PAYLOAD,2024-08-03 15:57:36,15.08856019,0.0001296,53.2173,316.4331,97.3154,262.7986,0.00011143,1.487e-05,0.0,0 STARLINK-3157,1 49413U 21104F   24216.66500427  .00001487  00000-0  11143-3 0  9997,2 49413  53.2173 316.4331 0001296  97.3154 262.7986 15.08856019151844,6917.831,95.437,540.593,538.8,0.0
49413.0,STARLINK-3157,PAYLOAD,2024-08-04 12:37:37,15.08844628,0.0001435,53.2154,312.5695,108.6044,251.5104,0.00013221,1.817e-05,0.0,0 STARLINK-3157,1 49413U 21104F   24217.52613079  .00001817  00000-0  13221-3 0  9997,2 49413  53.2154 312.5695 0001435 108.6044 251.5104 15.08844628151977,6917.866,95.437,540.724,538.739,0.0
49413.0,STARLINK-3157,PAYLOAD,2024-08-05 12:28:24,15.08854249,0.0001453,53.2171,308.1058,100.8203,259.2952,-5.2307e-06,-3.71e-06,0.0,0 STARLINK-3157,1 49413U 21104F   24218.51972455 -.00000371  00000-0 -52307-5 0  9999,2 49413  53.2171 308.1058 0001453 100.8203 259.2952 15.08854249151034,6917.837,95.437,540.707,538.697,0.0
49413.0,STARLINK-3157,PAYLOAD,2024-08-05 23:36:06,15.08841895,0.0001488,53.2168,306.0279,86.3646,273.7516,1.3649e-05,-7.1e-07,0.0,0 STARLINK-3157,1 49413U 21104F   24218.98341073 -.00000071  00000-0  13649-4 0  9997,2 49413  53.2168 306.0279 0001488  86.3646 273.7516 15.08841895152197,6917.875,95.437,540.769,538.71,0.0
